STARLINK-2193_new
1 17770C 21017BA  21326.11998556  .00007542  00000-0  50524-3 0  3265
2 17770  53.0556  48.1921 0001420  67.7043 345.7607 15.06399074    17
STARLINK-2193_old
1 27770C 21017BA  21325.15503575  .00006899  00000-0  46228-3 0  3250
2 27770  53.0553  52.5237 0001413  69.8954 147.7321 15.06386158    11
